LANDSAT 9               
1 49260U 21088A   24146.16651736  .00000874  00000+0  20391-3 0  9998
2 49260  98.1877 216.1743 0001012  88.4175 271.7139 14.57127010141334
